     2.100          NAVIGATION                              RINEX VERSION / TYPE
fic2rin                                 12/02/2015 00:06:19 PGM / RUN BY / DATE
                                                            END OF HEADER
18 15 12  1 20  0  0.0  .458446331322D-03  .386535248253D-11  .000000000000D+00
     .730000000000D+02  .285312500000D+02  .542629745564D-08 -.275612212222D+01
     .137463212013D-05  .163844170747D-01  .781379640102D-05  .515364499855D+04
     .244800000000D+06  .230967998505D-06  .198753947654D+01 -.540167093277D-07
     .924646772712D+00  .206250000000D+03 -.192656608235D+01 -.816855453880D-08
     .325727853587D-09  .100000000000D+01  .187300000000D+04  .000000000000D+00
     .240000000000D+01  .000000000000D+00 -.111758708954D-07  .730000000000D+02
     .237606000000D+06  .400000000000D+01
19 15 12  1 20  0  0.0 -.523312948644D-03 -.341060513165D-12  .000000000000D+00
     .560000000000D+02 -.553125000000D+02  .436339603867D-08 -.168697499888D+00
    -.270828604698D-05  .113255329197D-01  .517815351486D-05  .515517374802D+04
     .244800000000D+06  .670552253723D-07  .138370720953D-01  .156462192535D-06
     .971875995953D+00  .285062500000D+03  .662030667983D+00 -.831427489435D-08
     .303584074067D-10  .100000000000D+01  .187300000000D+04  .000000000000D+00
     .240000000000D+01  .000000000000D+00 -.149011611938D-07  .560000000000D+02
     .237606000000D+06  .400000000000D+01
20 15 12  1 20  0  0.0  .375182833523D-03  .284217094304D-11  .000000000000D+00
     .930000000000D+02  .152187500000D+02  .550487215716D-08  .126911742155D+01
     .802800059319D-06  .503662484698D-02  .848248600960D-05  .515366919327D+04
     .244800000000D+06 -.137835741043D-06  .193545446832D+01 -.447034835815D-07
     .925852591717D+00  .200250000000D+03  .128236379219D+01 -.848928218411D-08
     .220366321999D-09  .100000000000D+01  .187300000000D+04  .000000000000D+00
     .240000000000D+01  .000000000000D+00 -.838190317154D-08  .930000000000D+02
     .237606000000D+06  .400000000000D+01
21 15 12  1 20  0  0.0 -.496928114444D-03 -.227373675443D-11  .000000000000D+00
     .810000000000D+02 -.397500000000D+02  .492627662777D-08 -.184409209192D+01
    -.197254121304D-05  .227176913759D-01  .865571200848D-05  .515371265602D+04
     .244800000000D+06  .454485416412D-06  .944625347529D+00  .128522515297D-06
     .934967400825D+00  .188468750000D+03 -.185713968564D+01 -.790854370830D-08
     .203222750758D-09  .100000000000D+01  .187300000000D+04  .000000000000D+00
     .240000000000D+01  .000000000000D+00 -.116415321827D-07  .810000000000D+02
     .237606000000D+06  .400000000000D+01
22 15 12  1 20  0  0.0  .415744725615D-03  .363797880709D-11  .000000000000D+00
     .470000000000D+02  .293750000000D+02  .552165857067D-08  .304186065807D+01
     .141561031342D-05  .799428333994D-02  .813417136669D-05  .515366707230D+04
     .244800000000D+06  .540167093277D-07  .198836317110D+01 -.540167093277D-07
     .922482126478D+00  .203125000000D+03 -.204791600600D+01 -.831606068302D-08
     .285369029623D-09  .100000000000D+01  .187300000000D+04  .000000000000D+00
     .240000000000D+01  .000000000000D+00 -.176951289177D-07  .470000000000D+02
     .237606000000D+06  .400000000000D+01
23 15 12  1 20  0  0.0 -.147446058691D-03 -.204636307899D-11  .000000000000D+00
     .790000000000D+02  .130000000000D+02  .517807283037D-08  .744230190118D+00
     .851228833199D-06  .103934190702D-01  .650063157082D-05  .515376131821D+04
     .244800000000D+06 -.335276126862D-07  .306225986719D+01  .128522515297D-06
     .947419009039D+00  .245687500000D+03 -.262025828549D+01 -.846606693138D-08
    -.345728686702D-09  .100000000000D+01  .187300000000D+04  .000000000000D+00
     .240000000000D+01  .000000000000D+00 -.200234353542D-07  .790000000000D+02
     .237606000000D+06  .400000000000D+01
24 15 12  1 20  0  0.0 -.869110226631D-05 -.454747350886D-12  .000000000000D+00
     .290000000000D+02  .278125000000D+02  .468090926437D-08  .124303594749D+00
     .136159360409D-05  .382107531186D-02  .796280801296D-05  .515364994431D+04
     .244800000000D+06  .149011611938D-07 -.219475318833D+01  .502914190292D-07
     .951526745491D+00  .218156250000D+03  .304315766807D+00 -.820498462769D-08
    -.301798285396D-09  .100000000000D+01  .187300000000D+04  .000000000000D+00
     .240000000000D+01  .000000000000D+00  .279396772385D-08  .290000000000D+02
     .237606000000D+06  .400000000000D+01
25 15 12  1 20  0  0.0 -.761100091040D-04 -.591171556152D-11  .000000000000D+00
     .130000000000D+02  .412812500000D+02  .403588239642D-08 -.190365752986D+01
     .223517417908D-05  .475235993508D-02  .581145286560D-05  .515359361267D+04
     .244800000000D+06 -.111758708954D-07 -.112662668880D+01 -.800937414169D-07
     .978454071465D+00  .278687500000D+03  .706646736250D+00 -.789497171440D-08
     .126433837905D-09  .100000000000D+01  .187300000000D+04  .000000000000D+00
     .240000000000D+01  .000000000000D+00  .558793544769D-08  .130000000000D+02
     .237606000000D+06  .400000000000D+01
26 15 12  1 20  0  0.0 -.146235805005D-03 -.165982783074D-10  .000000000000D+00
     .770000000000D+02  .538125000000D+02  .448840124564D-08 -.217045486073D+01
     .281445682049D-05  .454263994470D-03  .563636422157D-05  .515367409325D+04
     .244800000000D+06  .856816768646D-07 -.113249690068D+01  .540167093277D-07
     .960505355463D+00  .273093750000D+03 -.351400882377D+00 -.821962809479D-08
     .194293807403D-09  .100000000000D+01  .187300000000D+04  .000000000000D+00
     .240000000000D+01  .000000000000D+00  .745058059692D-08  .770000000000D+02
     .237606000000D+06  .400000000000D+01
27 15 12  1 20  0  0.0  .406522303820D-04  .329691829393D-11  .000000000000D+00
     .800000000000D+01 -.581250000000D+02  .442732727309D-08  .195703109095D+01
    -.303424894810D-05  .281426717993D-02  .459328293800D-05  .515371027184D+04
     .244800000000D+06 -.540167093277D-07 -.841296508976D-01  .502914190292D-07
     .969732834134D+00  .294281250000D+03  .262291446634D+00 -.821069915143D-08
    -.185722021782D-10  .100000000000D+01  .187300000000D+04  .000000000000D+00
     .240000000000D+01  .000000000000D+00  .186264514923D-08  .800000000000D+01
     .237606000000D+06  .400000000000D+01
28 15 12  1 20  0  0.0  .485319178551D-03  .261479726760D-11  .000000000000D+00
     .740000000000D+02  .409687500000D+02  .370658296549D-08  .274868647682D+01
     .206567347050D-05  .200068664271D-01  .569969415665D-05  .515370377922D+04
     .244800000000D+06  .206753611565D-06 -.105389944566D+01 -.147148966789D-06
     .989303497650D+00  .279531250000D+03 -.164450269808D+01 -.752102756670D-08
     .106433004790D-09  .100000000000D+01  .187300000000D+04  .000000000000D+00
     .340000000000D+01  .000000000000D+00 -.111758708954D-07  .740000000000D+02
     .237606000000D+06  .400000000000D+01
29 15 12  1 20  0  0.0  .646675005555D-03  .147792889038D-11  .000000000000D+00
     .340000000000D+02 -.571562500000D+02  .420588947789D-08 -.175192308443D+01
    -.291503965855D-05  .894683180377D-03  .508688390255D-05  .515365358734D+04
     .244800000000D+06 -.149011611938D-07 -.257337267244D-01 -.372529029846D-08
     .975715964269D+00  .288406250000D+03 -.570706424008D+00 -.804533512050D-08
     .117862052285D-10  .100000000000D+01  .187300000000D+04  .000000000000D+00
     .240000000000D+01  .000000000000D+00 -.102445483208D-07  .340000000000D+02
     .237606000000D+06  .400000000000D+01
30 15 12  1 20  0  0.0  .649858266115D-04  .534328137292D-11  .000000000000D+00
     .107000000000D+03  .294687500000D+02  .446911472800D-08 -.915264599233D+00
     .147148966789D-05  .166549917776D-02  .897608697414D-05  .515367257881D+04
     .244800000000D+06 -.186264514923D-08 -.210396137924D+01 -.931322574615D-07
     .954122579515D+00  .202718750000D+03  .313940906403D+01 -.805069248651D-08
    -.276797244002D-09  .100000000000D+01  .187300000000D+04  .000000000000D+00
     .340000000000D+01  .000000000000D+00  .325962901115D-08  .107000000000D+03
     .237606000000D+06  .400000000000D+01
31 15 12  1 20  0  0.0  .293015968055D-03 -.159161572810D-11  .000000000000D+00
     .420000000000D+02  .370625000000D+02  .417553107049D-08 -.858391015408D+00
     .181980431080D-05  .829516991507D-02  .866502523422D-05  .515364611053D+04
     .244800000000D+06 -.335276126862D-07 -.214207150995D+01 -.111758708954D-06
     .973216230797D+00  .221562500000D+03 -.489431805496D+00 -.792318717541D-08
    -.173221501085D-09  .100000000000D+01  .187300000000D+04  .000000000000D+00
     .240000000000D+01  .000000000000D+00 -.135041773319D-07  .420000000000D+02
     .237606000000D+06  .400000000000D+01
32 15 12  1 20  0  0.0  .344784930348D-04  .119371179608D-10  .000000000000D+00
     .660000000000D+02  .275000000000D+02  .522200323168D-08 -.452781539757D+00
     .155530869961D-05  .113793336786D-01  .772625207901D-05  .515364413834D+04
     .244800000000D+06  .232830643654D-06  .209377992730D+01  .391155481339D-07
     .946536711442D+00  .223968750000D+03  .186222282711D+00 -.841249327125D-08
     .305369862738D-09  .100000000000D+01  .187300000000D+04  .000000000000D+00
     .240000000000D+01  .000000000000D+00 -.325962901115D-08  .660000000000D+02
     .237606000000D+06  .400000000000D+01
28 15 12  1 19 59 44.0  .485308934003D-03  .261479726760D-11  .000000000000D+00
     .600000000000D+01  .409687500000D+02  .370622580775D-08  .274635274359D+01
     .206567347050D-05  .200068706181D-01  .569969415665D-05  .515370376587D+04
     .244784000000D+06  .206753611565D-06 -.105389931107D+01 -.147148966789D-06
     .989303490336D+00  .279531250000D+03 -.164450252838D+01 -.752102756670D-08
     .106433004790D-09  .100000000000D+01  .187300000000D+04  .000000000000D+00
     .240000000000D+01  .000000000000D+00 -.111758708954D-07  .600000000000D+01
     .239076000000D+06  .400000000000D+01
